start=new Date('2022-08-08T00:00:00.000Z').valueOf();
sats=[{"REV_AT_EPOCH":"130","DECAY_DATE":null,"COUNTRY_CODE":"US","OBJECT_NAME":"STARLINK-4161","INCLINATION":"53.2179","ARG_OF_PERICENTER":"33.7468","TLE_LINE1":"1 53028U 22076AU  22219.91667824  .00080140  00000-0  57030-3 0  9995","FILE":"3531552","GP_ID":"209796165","MEAN_ANOMALY":"93.3879","ECCENTRICITY":"0.00021400","EPOCH":"2022-08-07T22:00:00.999936","PERIAPSIS":"348.361","MEAN_ELEMENT_THEORY":"SGP4","CLASSIFICATION_TYPE":"U","OBJECT_ID":"2022-076AU","MEAN_MOTION_DDOT":"0.0000000000000","MEAN_MOTION_DOT":"0.00080140","SEMIMAJOR_AXIS":"6727.935","RCS_SIZE":"LARGE","MEAN_MOTION":"15.73185881","TIME_SYSTEM":"UTC","TLE_LINE2":"2 53028  53.2179 224.3151 0002140  33.7468  93.3879 15.73185881  1303","REF_FRAME":"TEME","ELEMENT_SET_NO":"999","BSTAR":"0.00057030000000","SITE":"AFETR","EPHEMERIS_TYPE":"0","RA_OF_ASC_NODE":"224.3151","OBJECT_TYPE":"PAYLOAD","APOAPSIS":"351.240","NORAD_CAT_ID":"53028","PERIOD":"91.534","CENTER_NAME":"EARTH","LAUNCH_DATE":"2022-07-07"},{"CLASSIFICATION_TYPE":"U","OBJECT_ID":"2022-076AV","MEAN_MOTION_DDOT":"0.0000000000000","MEAN_MOTION_DOT":"0.00080609","SEMIMAJOR_AXIS":"6727.967","RCS_SIZE":"LARGE","ECCENTRICITY":"0.00023710","GP_ID":"209796692","MEAN_ANOMALY":"106.9612","EPOCH":"2022-08-07T22:00:00.999936","PERIAPSIS":"348.237","MEAN_ELEMENT_THEORY":"SGP4","TLE_LINE1":"1 53029U 22076AV  22219.91667824  .00080609  00000-0  57384-3 0  9998","FILE":"3531552","REV_AT_EPOCH":"130","DECAY_DATE":null,"COUNTRY_CODE":"US","INCLINATION":"53.2180","OBJECT_NAME":"STARLINK-4143","ARG_OF_PERICENTER":"23.1848","OBJECT_TYPE":"PAYLOAD","NORAD_CAT_ID":"53029","APOAPSIS":"351.427","PERIOD":"91.535","CENTER_NAME":"EARTH","LAUNCH_DATE":"2022-07-07","ELEMENT_SET_NO":"999","SITE":"AFETR","BSTAR":"0.00057384000000","EPHEMERIS_TYPE":"0","RA_OF_ASC_NODE":"224.3110","TLE_LINE2":"2 53029  53.2180 224.3110 0002371  23.1848 106.9612 15.73174854  1306","REF_FRAME":"TEME","MEAN_MOTION":"15.73174854","TIME_SYSTEM":"UTC"},{"TIME_SYSTEM":"UTC","MEAN_MOTION":"15.73162277","REF_FRAME":"TEME","TLE_LINE2":"2 53030  53.2178 224.3116 0001932  38.2326  90.1454 15.73162277  1305","RA_OF_ASC_NODE":"224.3116","EPHEMERIS_TYPE":"0","SITE":"AFETR","BSTAR":"0.00057386000000","ELEMENT_SET_NO":"999","LAUNCH_DATE":"2022-07-07","CENTER_NAME":"EARTH","PERIOD":"91.535","APOAPSIS":"351.168","NORAD_CAT_ID":"53030","OBJECT_TYPE":"PAYLOAD","ARG_OF_PERICENTER":"38.2326","COUNTRY_CODE":"US","OBJECT_NAME":"STARLINK-4160","INCLINATION":"53.2178","DECAY_DATE":null,"REV_AT_EPOCH":"130","FILE":"3531552","TLE_LINE1":"1 53030U 22076AW  22219.91667824  .00080565  00000-0  57386-3 0  9993","MEAN_ELEMENT_THEORY":"SGP4","PERIAPSIS":"348.568","EPOCH":"2022-08-07T22:00:00.999936","ECCENTRICITY":"0.00019320","GP_ID":"209797060","MEAN_ANOMALY":"90.1454","RCS_SIZE":"LARGE","MEAN_MOTION_DOT":"0.00080565","SEMIMAJOR_AXIS":"6728.003","MEAN_MOTION_DDOT":"0.0000000000000","OBJECT_ID":"2022-076AW","CLASSIFICATION_TYPE":"U"},{"CLASSIFICATION_TYPE":"U","MEAN_MOTION_DDOT":"0.0000000000000","OBJECT_ID":"2022-076AX","MEAN_MOTION_DOT":"0.00080904","SEMIMAJOR_AXIS":"6727.955","RCS_SIZE":"LARGE","GP_ID":"209796412","ECCENTRICITY":"0.00020440","MEAN_ANOMALY":"104.5413","EPOCH":"2022-08-07T22:00:00.999936","MEAN_ELEMENT_THEORY":"SGP4","PERIAPSIS":"348.445","FILE":"3531552","TLE_LINE1":"1 53031U 22076AX  22219.91667824  .00080904  00000-0  57582-3 0  9999","DECAY_DATE":null,"REV_AT_EPOCH":"130","ARG_OF_PERICENTER":"27.3925","OBJECT_NAME":"STARLINK-4137","COUNTRY_CODE":"US","INCLINATION":"53.2179","OBJECT_TYPE":"PAYLOAD","APOAPSIS":"351.195","NORAD_CAT_ID":"53031","CENTER_NAME":"EARTH","PERIOD":"91.534","LAUNCH_DATE":"2022-07-07","ELEMENT_SET_NO":"999","SITE":"AFETR","BSTAR":"0.00057582000000","EPHEMERIS_TYPE":"0","RA_OF_ASC_NODE":"224.3066","TLE_LINE2":"2 53031  53.2179 224.3066 0002044  27.3925 104.5413 15.73178942  1301","REF_FRAME":"TEME","TIME_SYSTEM":"UTC","MEAN_MOTION":"15.73178942"},{"TIME_SYSTEM":"UTC","MEAN_MOTION":"15.73221170","REF_FRAME":"TEME","TLE_LINE2":"2 53032  53.2171 224.3086 0002693  27.4236 101.4918 15.73221170  5438","ELEMENT_SET_NO":"999","EPHEMERIS_TYPE":"0","RA_OF_ASC_NODE":"224.3086","SITE":"AFETR","BSTAR":"0.00025889000000","APOAPSIS":"351.512","NORAD_CAT_ID":"53032","OBJECT_TYPE":"PAYLOAD","LAUNCH_DATE":"2022-07-07","PERIOD":"91.532","CENTER_NAME":"EARTH","DECAY_DATE":null,"REV_AT_EPOCH":"543","ARG_OF_PERICENTER":"27.4236","COUNTRY_CODE":"US","INCLINATION":"53.2171","OBJECT_NAME":"STARLINK-4115","FILE":"3531552","TLE_LINE1":"1 53032U 22076AY  22219.91667824  .00035905  00000-0  25889-3 0  9996","EPOCH":"2022-08-07T22:00:00.999936","ECCENTRICITY":"0.00026930","GP_ID":"209796562","MEAN_ANOMALY":"101.4918","MEAN_ELEMENT_THEORY":"SGP4","PERIAPSIS":"347.888","MEAN_MOTION_DDOT":"0.0000000000000","OBJECT_ID":"2022-076AY","CLASSIFICATION_TYPE":"U","RCS_SIZE":"LARGE","SEMIMAJOR_AXIS":"6727.835","MEAN_MOTION_DOT":"0.00035905"},{"ARG_OF_PERICENTER":"25.3198","COUNTRY_CODE":"US","INCLINATION":"53.2182","OBJECT_NAME":"STARLINK-4167","DECAY_DATE":null,"REV_AT_EPOCH":"543","FILE":"3531552","TLE_LINE1":"1 53033U 22076AZ  22219.91667824  .00081236  00000-0  57816-3 0  9990","MEAN_ELEMENT_THEORY":"SGP4","PERIAPSIS":"348.286","EPOCH":"2022-08-07T22:00:00.999936","GP_ID":"209796297","MEAN_ANOMALY":"106.0361","ECCENTRICITY":"0.00022860","RCS_SIZE":"LARGE","MEAN_MOTION_DOT":"0.00081236","SEMIMAJOR_AXIS":"6727.959","MEAN_MOTION_DDOT":"0.0000000000000","OBJECT_ID":"2022-076AZ","CLASSIFICATION_TYPE":"U","TIME_SYSTEM":"UTC","MEAN_MOTION":"15.73177731","REF_FRAME":"TEME","TLE_LINE2":"2 53033  53.2182 224.3089 0002286  25.3198 106.0361 15.73177731  5432","EPHEMERIS_TYPE":"0","RA_OF_ASC_NODE":"224.3089","BSTAR":"0.00057816000000","SITE":"AFETR","ELEMENT_SET_NO":"999","LAUNCH_DATE":"2022-07-07","CENTER_NAME":"EARTH","PERIOD":"91.534","NORAD_CAT_ID":"53033","APOAPSIS":"351.362","OBJECT_TYPE":"PAYLOAD"},{"FILE":"3531552","TLE_LINE1":"1 53034U 22076BA  22219.91667824 -.00015854  00000-0 -10863-3 0  9997","DECAY_DATE":null,"REV_AT_EPOCH":"542","ARG_OF_PERICENTER":"19.3103","COUNTRY_CODE":"US","INCLINATION":"53.2182","OBJECT_NAME":"STARLINK-4151","CLASSIFICATION_TYPE":"U","MEAN_MOTION_DDOT":"0.0000000000000","OBJECT_ID":"2022-076BA","MEAN_MOTION_DOT":"-0.00015854","SEMIMAJOR_AXIS":"6727.836","RCS_SIZE":"MEDIUM","GP_ID":"209796934","ECCENTRICITY":"0.00024530","MEAN_ANOMALY":"111.4062","EPOCH":"2022-08-07T22:00:00.999936","MEAN_ELEMENT_THEORY":"SGP4","PERIAPSIS":"348.051","TLE_LINE2":"2 53034  53.2182 224.3099 0002453  19.3103 111.4062 15.73220695  5424","REF_FRAME":"TEME","TIME_SYSTEM":"UTC","MEAN_MOTION":"15.73220695","OBJECT_TYPE":"PAYLOAD","NORAD_CAT_ID":"53034","APOAPSIS":"351.352","PERIOD":"91.532","CENTER_NAME":"EARTH","LAUNCH_DATE":"2022-07-07","ELEMENT_SET_NO":"999","BSTAR":"-0.00010863000000","SITE":"AFETR","EPHEMERIS_TYPE":"0","RA_OF_ASC_NODE":"224.3099"},{"MEAN_MOTION":"15.73222285","TIME_SYSTEM":"UTC","TLE_LINE2":"2 53035  53.2180 224.3064 0002347  19.4137 113.0994 15.73222285  1307","REF_FRAME":"TEME","BSTAR":"-0.00017962000000","SITE":"AFETR","RA_OF_ASC_NODE":"224.3064","EPHEMERIS_TYPE":"0","ELEMENT_SET_NO":"999","PERIOD":"91.532","CENTER_NAME":"EARTH","LAUNCH_DATE":"2022-07-07","OBJECT_TYPE":"PAYLOAD","APOAPSIS":"351.276","NORAD_CAT_ID":"53035","OBJECT_NAME":"STARLINK-4157","COUNTRY_CODE":"US","INCLINATION":"53.2180","ARG_OF_PERICENTER":"19.4137","REV_AT_EPOCH":"130","DECAY_DATE":null,"TLE_LINE1":"1 53035U 22076BB  22219.91667824 -.00025780  00000-0 -17962-3 0  9994","FILE":"3531552","PERIAPSIS":"348.118","MEAN_ELEMENT_THEORY":"SGP4","MEAN_ANOMALY":"113.0994","GP_ID":"209796808","ECCENTRICITY":"0.00023470","EPOCH":"2022-08-07T22:00:00.999936","SEMIMAJOR_AXIS":"6727.832","MEAN_MOTION_DOT":"-0.00025780","RCS_SIZE":"LARGE","CLASSIFICATION_TYPE":"U","OBJECT_ID":"2022-076BB","MEAN_MOTION_DDOT":"0.0000000000000"},{"FILE":"3531552","TLE_LINE1":"1 53036U 22076BC  22219.91667824  .00006183  00000-0  48376-4 0  9993","DECAY_DATE":null,"REV_AT_EPOCH":"130","ARG_OF_PERICENTER":"41.3629","OBJECT_NAME":"STARLINK-4155","COUNTRY_CODE":"US","INCLINATION":"53.2175","CLASSIFICATION_TYPE":"U","MEAN_MOTION_DDOT":"0.0000000000000","OBJECT_ID":"2022-076BC","MEAN_MOTION_DOT":"0.00006183","SEMIMAJOR_AXIS":"6727.795","RCS_SIZE":"LARGE","GP_ID":"209796166","ECCENTRICITY":"0.00021300","MEAN_ANOMALY":"91.6572","EPOCH":"2022-08-07T22:00:00.999936","MEAN_ELEMENT_THEORY":"SGP4","PERIAPSIS":"348.227","TLE_LINE2":"2 53036  53.2175 224.3023 0002130  41.3629  91.6572 15.73235123  1305","REF_FRAME":"TEME","TIME_SYSTEM":"UTC","MEAN_MOTION":"15.73235123","OBJECT_TYPE":"PAYLOAD","NORAD_CAT_ID":"53036","APOAPSIS":"351.093","CENTER_NAME":"EARTH","PERIOD":"91.531","LAUNCH_DATE":"2022-07-07","ELEMENT_SET_NO":"999","SITE":"AFETR","BSTAR":"0.00004837600000","EPHEMERIS_TYPE":"0","RA_OF_ASC_NODE":"224.3023"},{"BSTAR":"0.00058137000000","SITE":"AFETR","EPHEMERIS_TYPE":"0","RA_OF_ASC_NODE":"224.3025","ELEMENT_SET_NO":"999","PERIOD":"91.534","CENTER_NAME":"EARTH","LAUNCH_DATE":"2022-07-07","OBJECT_TYPE":"PAYLOAD","NORAD_CAT_ID":"53037","APOAPSIS":"351.232","MEAN_MOTION":"15.73181856","TIME_SYSTEM":"UTC","TLE_LINE2":"2 53037  53.2178 224.3025 0002110  28.6739 105.0640 15.73181856  1308","REF_FRAME":"TEME","PERIAPSIS":"348.392","MEAN_ELEMENT_THEORY":"SGP4","GP_ID":"209796693","ECCENTRICITY":"0.00021100","MEAN_ANOMALY":"105.0640","EPOCH":"2022-08-07T22:00:00.999936","MEAN_MOTION_DOT":"0.00081708","SEMIMAJOR_AXIS":"6727.947","RCS_SIZE":"MEDIUM","CLASSIFICATION_TYPE":"U","OBJECT_ID":"2022-076BD","MEAN_MOTION_DDOT":"0.0000000000000","OBJECT_NAME":"STARLINK-4153","COUNTRY_CODE":"US","INCLINATION":"53.2178","ARG_OF_PERICENTER":"28.6739","REV_AT_EPOCH":"130","DECAY_DATE":null,"TLE_LINE1":"1 53037U 22076BD  22219.91667824  .00081708  00000-0  58137-3 0  9995","FILE":"3531552"}];
